NORAD_CAT_ID,OBJECT_NAME,OBJECT_TYPE,EPOCH,MEAN_MOTION,ECCENTRICITY,INCLINATION,RA_OF_ASC_NODE,ARG_OF_PERICENTER,MEAN_ANOMALY,BSTAR,MEAN_MOTION_DOT,MEAN_MOTION_DDOT,TLE_LINE0,TLE_LINE1,TLE_LINE2,SEMIMAJOR_AXIS,PERIOD,APOGEE,PERIGEE,DECAYED
53034.0,STARLINK-4151,PAYLOAD,2023-09-01 10:07:04,15.08848218,0.0001155,53.2165,245.3653,83.7436,276.3688,0.00015784,2.226e-05,0.0,0 STARLINK-4151,1 53034U 22076BA  23244.42158227  .00002226  00000-0  15784-3 0  9998,2 53034  53.2165 245.3653 0001155  83.7436 276.3688 15.08848218 64656,6917.855,95.437,540.519,538.921,0.0
53034.0,STARLINK-4151,PAYLOAD,2023-09-02 00:25:33,15.08838657,0.0001275,53.2149,242.6882,89.0321,271.0817,9.5511e-05,1.232e-05,0.0,0 STARLINK-4151,1 53034U 22076BA  23245.01774990  .00001232  00000-0  95511-4 0  9998,2 53034  53.2149 242.6882 0001275  89.0321 271.0817 15.08838657 64749,6917.884,95.438,540.632,538.867,0.0
53034.0,STARLINK-4151,PAYLOAD,2023-09-02 06:47:06,15.08833419,0.0001184,53.2144,241.4982,92.4414,267.6714,0.00022939,3.364e-05,0.0,0 STARLINK-4151,1 53034U 22076BA  23245.28271125  .00003364  00000-0  22939-3 0  9990,2 53034  53.2144 241.4982 0001184  92.4414 267.6714 15.08833419 64324,6917.901,95.438,540.585,538.946,0.0
53034.0,STARLINK-4151,PAYLOAD,2023-09-02 16:19:24,15.08840295,0.0001204,53.2139,239.7135,84.822,275.2909,7.1864e-05,8.56e-06,0.0,0 STARLINK-4151,1 53034U 22076BA  23245.68014887  .00000856  00000-0  71864-4 0  9999,2 53034  53.2139 239.7135 0001204  84.8220 275.2909 15.08840295 64388,6917.879,95.438,540.577,538.912,0.0
53034.0,STARLINK-4151,PAYLOAD,2023-09-03 06:37:53,15.08839699,0.000153,53.2166,237.0401,93.816,266.3007,5.2041e-05,5.4e-06,0.0,0 STARLINK-4151,1 53034U 22076BA  23246.27631165  .00000540  00000-0  52041-4 0  9995,2 53034  53.2166 237.0401 0001530  93.8160 266.3007 15.08839699 64937,6917.881,95.438,540.805,538.688,0.0
53034.0,STARLINK-4151,PAYLOAD,2023-09-04 00:07:08,15.08833564,0.0001466,53.2173,233.7696,98.678,261.4378,-1.9357e-05,-5.96e-06,0.0,0 STARLINK-4151,1 53034U 22076BA  23247.00495894 -.00000596  00000-0 -19357-4 0  9990,2 53034  53.2173 233.7696 0001466  98.6780 261.4378 15.08833564 65048,6917.9,95.438,540.779,538.751,0.0
53034.0,STARLINK-4151,PAYLOAD,2023-09-04 04:53:18,15.08810156,0.0001659,53.2174,232.8777,95.7247,264.3934,0.00027722,4.123e-05,0.0,0 STARLINK-4151,1 53034U 22076BA  23247.20368657  .00004123  00000-0  27722-3 0  9990,2 53034  53.2174 232.8777 0001659  95.7247 264.3934 15.08810156 65074,6917.972,95.439,540.984,538.689,0.0
53034.0,STARLINK-4151,PAYLOAD,2023-09-04 06:28:41,15.08832957,0.0001429,53.2172,232.58,97.1443,262.9711,-2.5962e-05,-7.01e-06,0.0,0 STARLINK-4151,1 53034U 22076BA  23247.26992052 -.00000701  00000-0 -25962-4 0  9993,2 53034  53.2172 232.5800 0001429  97.1443 262.9711 15.08832957 64625,6917.902,95.438,540.755,538.778,0.0
53034.0,STARLINK-4151,PAYLOAD,2023-09-05 11:05:37,15.08841381,0.00013,53.2165,227.2264,93.6034,266.5106,0.00010128,1.324e-05,0.0,0 STARLINK-4151,1 53034U 22076BA  23248.46223414  .00001324  00000-0  10128-3 0  9992,2 53034  53.2165 227.2264 0001300  93.6034 266.5106 15.08841381 65267,6917.876,95.437,540.64,538.842,0.0
53034.0,STARLINK-4151,PAYLOAD,2023-09-05 15:51:46,15.08835178,0.0001299,53.2168,226.3339,89.3377,270.7764,3.4035e-05,2.54e-06,0.0,0 STARLINK-4151,1 53034U 22076BA  23248.66096035  .00000254  00000-0  34035-4 0  9996,2 53034  53.2168 226.3339 0001299  89.3377 270.7764 15.08835178 65299,6917.895,95.438,540.659,538.861,0.0
53034.0,STARLINK-4151,PAYLOAD,2023-09-06 01:24:05,15.08833896,0.0001337,53.2169,224.5496,88.7638,271.3507,0.00010431,1.372e-05,0.0,0 STARLINK-4151,1 53034U 22076BA  23249.05840132  .00001372  00000-0  10431-3 0  9990,2 53034  53.2169 224.5496 0001337  88.7638 271.3507 15.08833896 64892,6917.899,95.438,540.689,538.839,0.0
53034.0,STARLINK-4151,PAYLOAD,2023-09-06 22:04:06,15.08844092,0.0001255,53.2156,220.6827,97.3255,262.788,2.7778e-05,1.54e-06,0.0,0 STARLINK-4151,1 53034U 22076BA  23249.91951877  .00000154  00000-0  27778-4 0  9994,2 53034  53.2156 220.6827 0001255  97.3255 262.7880 15.08844092 65027,6917.868,95.437,540.601,538.865,0.0
53034.0,STARLINK-4151,PAYLOAD,2023-09-07 07:36:25,15.08846206,0.0001312,53.2155,218.8983,91.3923,268.722,5.062e-05,5.18e-06,0.0,0 STARLINK-4151,1 53034U 22076BA  23250.31695629  .00000518  00000-0  50620-4 0  9996,2 53034  53.2155 218.8983 0001312  91.3923 268.7220 15.08846206 65087,6917.861,95.437,540.634,538.819,0.0
53034.0,STARLINK-4151,PAYLOAD,2023-09-08 02:41:02,15.08844391,0.0001492,53.2155,215.3298,90.0084,270.1079,8.5487e-05,1.073e-05,0.0,0 STARLINK-4151,1 53034U 22076BA  23251.11183588  .00001073  00000-0  85487-4 0  9997,2 53034  53.2155 215.3298 0001492  90.0084 270.1079 15.08844391 65667,6917.867,95.437,540.764,538.7,0.0
53034.0,STARLINK-4151,PAYLOAD,2023-09-08 04:16:25,15.0884506,0.0001441,53.216,215.0312,97.3975,262.7181,8.8805e-05,1.126e-05,0.0,0 STARLINK-4151,1 53034U 22076BA  23251.17807486  .00001126  00000-0  88805-4 0  9999,2 53034  53.2160 215.0312 0001441  97.3975 262.7181 15.08845060 65216,6917.865,95.437,540.727,538.733,0.0
53034.0,STARLINK-4151,PAYLOAD,2023-09-09 02:31:49,15.0884053,0.000137,53.2166,210.8709,92.4789,267.636,3.5416e-05,2.76e-06,0.0,0 STARLINK-4151,1 53034U 22076BA  23252.10543941  .00000276  00000-0  35416-4 0  9991,2 53034  53.2166 210.8709 0001370  92.4789 267.6360 15.08840530 65811,6917.879,95.438,540.692,538.796,0.0
53034.0,STARLINK-4151,PAYLOAD,2023-09-09 07:17:59,15.08840644,0.000137,53.2161,209.9785,85.4751,274.6398,2.911e-05,1.75e-06,0.0,0 STARLINK-4151,1 53034U 22076BA  23252.30415947  .00000175  00000-0  29110-4 0  9999,2 53034  53.2161 209.9785 0001370  85.4751 274.6398 15.08840644 65387,6917.878,95.438,540.691,538.796,0.0
53034.0,STARLINK-4151,PAYLOAD,2023-09-10 05:33:22,15.08847292,0.0001274,53.217,205.8144,96.1369,263.9769,6.8438e-05,8.02e-06,0.0,0 STARLINK-4151,1 53034U 22076BA  23253.23151345  .00000802  00000-0  68438-4 0  9994,2 53034  53.2170 205.8144 0001274  96.1369 263.9769 15.08847292 65983,6917.858,95.437,540.604,538.842,0.0
53034.0,STARLINK-4151,PAYLOAD,2023-09-11 02:13:24,15.08832636,0.0001135,53.2168,201.9491,96.0389,264.0732,6.1729e-06,-1.9e-06,0.0,0 STARLINK-4151,1 53034U 22076BA  23254.09264798 -.00000190  00000-0  61729-5 0  9994,2 53034  53.2168 201.9491 0001135  96.0389 264.0732 15.08832636 66113,6917.903,95.438,540.553,538.983,0.0
53034.0,STARLINK-4151,PAYLOAD,2023-09-11 13:21:06,15.0883762,0.0001128,53.2172,199.8675,99.6429,260.4691,3.9636e-05,3.43e-06,0.0,0 STARLINK-4151,1 53034U 22076BA  23254.55632531  .00000343  00000-0  39636-4 0  9999,2 53034  53.2172 199.8675 0001128  99.6429 260.4691 15.08837620 65721,6917.888,95.438,540.533,538.972,0.0
53034.0,STARLINK-4151,PAYLOAD,2023-09-12 02:04:11,15.08847998,0.0001192,53.2171,197.4889,112.9149,247.1969,5.3406e-06,-2.03e-06,0.0,0 STARLINK-4151,1 53034U 22076BA  23255.08624074 -.00000203  00000-0  53406-5 0  9999,2 53034  53.2171 197.4889 0001192 112.9149 247.1969 15.08847998 66269,6917.856,95.437,540.546,538.896,0.0
53034.0,STARLINK-4151,PAYLOAD,2023-09-12 06:50:20,15.08848234,0.0001242,53.2165,196.5967,109.4565,250.6561,0.00019511,2.819e-05,0.0,0 STARLINK-4151,1 53034U 22076BA  23255.28495618  .00002819  00000-0  19511-3 0  9992,2 53034  53.2165 196.5967 0001242 109.4565 250.6561 15.08848234 65831,6917.855,95.437,540.579,538.861,0.0
53034.0,STARLINK-4151,PAYLOAD,2023-09-13 01:54:58,15.08841497,0.000135,53.2171,193.028,89.5269,270.5878,0.00015026,2.104e-05,0.0,0 STARLINK-4151,1 53034U 22076BA  23256.07984376  .00002104  00000-0  15026-3 0  9998,2 53034  53.2171 193.0280 0001350  89.5269 270.5878 15.08841497 66418,6917.876,95.437,540.675,538.807,0.0
53034.0,STARLINK-4151,PAYLOAD,2023-09-13 05:05:44,15.08848694,0.0001376,53.2165,192.4337,83.0498,277.0651,0.00024099,3.55e-05,0.0,0 STARLINK-4151,1 53034U 22076BA  23256.21232028  .00003550  00000-0  24099-3 0  9990,2 53034  53.2165 192.4337 0001376  83.0498 277.0651 15.08848694 65975,6917.854,95.437,540.671,538.767,0.0
53034.0,STARLINK-4151,PAYLOAD,2023-09-14 01:45:45,15.08844797,0.0001387,53.2164,188.5681,86.9096,273.2055,-2.3616e-05,-6.64e-06,0.0,0 STARLINK-4151,1 53034U 22076BA  23257.07344080 -.00000664  00000-0 -23616-4 0  9997,2 53034  53.2164 188.5681 0001387  86.9096 273.2055 15.08844797 66562,6917.866,95.437,540.69,538.771,0.0
53034.0,STARLINK-4151,PAYLOAD,2023-09-14 04:56:31,15.08847658,0.000135,53.2164,187.9735,89.7502,270.3644,4.0421e-05,3.56e-06,0.0,0 STARLINK-4151,1 53034U 22076BA  23257.20591913  .00000356  00000-0  40421-4 0  9990,2 53034  53.2164 187.9735 0001350  89.7502 270.3644 15.08847658 66121,6917.857,95.437,540.656,538.788,0.0
53034.0,STARLINK-4151,PAYLOAD,2023-09-14 19:15:00,15.08829123,0.0001473,53.2178,185.2959,88.3496,271.7665,-6.8373e-05,-1.376e-05,0.0,0 STARLINK-4151,1 53034U 22076BA  23257.80209239 -.00001376  00000-0 -68373-4 0  9994,2 53034  53.2178 185.2959 0001473  88.3496 271.7665 15.08829123 66213,6917.914,95.438,540.798,538.76,0.0
53034.0,STARLINK-4151,PAYLOAD,2023-09-15 00:01:10,15.08831843,0.0001424,53.2173,184.4053,96.9302,263.1852,-0.00011385,-2.099e-05,0.0,0 STARLINK-4151,1 53034U 22076BA  23258.00081207 -.00002099  00000-0 -11385-3 0  9993,2 53034  53.2173 184.4053 0001424  96.9302 263.1852 15.08831843 66700,6917.905,95.438,540.755,538.785,0.0
53034.0,STARLINK-4151,PAYLOAD,2023-09-15 04:47:19,15.08834509,0.0001391,53.2169,183.5125,90.7327,269.3824,-6.1903e-05,-1.273e-05,0.0,0 STARLINK-4151,1 53034U 22076BA  23258.19953157 -.00001273  00000-0 -61903-4 0  9990,2 53034  53.2169 183.5125 0001391  90.7327 269.3824 15.08834509 66278,6917.897,95.438,540.724,538.8,0.0
53034.0,STARLINK-4151,PAYLOAD,2023-09-16 01:27:19,15.08853862,0.0001397,53.2171,179.6468,91.9554,268.1598,0.0003103,4.656e-05,0.0,0 STARLINK-4151,1 53034U 22076BA  23259.06064492  .00004656  00000-0  31030-3 0  9995,2 53034  53.2171 179.6468 0001397  91.9554 268.1598 15.08853862 66861,6917.838,95.437,540.669,538.737,0.0
